SZ-21 MODULE            
1 66515U 25246C   25336.56576591  .00032894  00000+0  37189-3 0  9991
2 66515  41.4769  78.0744 0005742 200.1960 159.8653 15.61741357  2854
CZ-2F R/B               
1 66646U 25272B   25330.47076975  .00449059  75676-5  29319-3 0  9998
2 66646  41.4431 114.9009 0121079 133.7676 227.3272 16.01945612   217
SOYUZ-MS 28             
1 66664U 25275A   25336.09225229  .00009217  00000+0  17381-3 0  9990
2 66664  51.6314 195.1903 0003639 193.8265 166.2625 15.49237019   798
